[{"OBJECT_NAME":"STARLINK-4253","OBJECT_ID":"2022-076U","EPOCH":"2026-03-09T11:30:39.693312","MEAN_MOTION":15.08837514,"ECCENTRICITY":0.00011418,"INCLINATION":53.2168,"RA_OF_ASC_NODE":95.0645,"ARG_OF_PERICENTER":99.2323,"MEAN_ANOMALY":260.8799,"EPHEMERIS_TYPE":0,"CLASSIFICATION_TYPE":"U","NORAD_CAT_ID":53004,"ELEMENT_SET_NO":999,"REV_AT_EPOCH":20281,"BSTAR":-1.997955e-6,"MEAN_MOTION_DOT":-3.2e-6,"MEAN_MOTION_DDOT":0},{"OBJECT_NAME":"KUIPER-00148","OBJECT_ID":"2025-217H","EPOCH":"2026-03-09T06:36:19.446048","MEAN_MOTION":15.09536529,"ECCENTRICITY":0.00081087,"INCLINATION":51.8794,"RA_OF_ASC_NODE":26.5769,"ARG_OF_PERICENTER":351.8096,"MEAN_ANOMALY":8.2745,"EPHEMERIS_TYPE":0,"CLASSIFICATION_TYPE":"U","NORAD_CAT_ID":65769,"ELEMENT_SET_NO":999,"REV_AT_EPOCH":2507,"BSTAR":0.00098730243,"MEAN_MOTION_DOT":0.00015783,"MEAN_MOTION_DDOT":0}]
